1 45578U 20025AZ  22365.13148426  .00005452  00000-0  38454-3 0  9998
2 45578  53.0562 264.5315 0001786  68.9590 291.1590 15.06409860149995
1 45578U 20025AZ  22365.72861423  .00002728  00000-0  20192-3 0  9995
2 45578  53.0561 261.8514 0001478  64.3518 295.7623 15.06402789150085
1 45578U 20025AZ  23001.12670214 -.00000434  00000-0 -10255-4 0  9997
2 45578  53.0552 260.0643 0001609  65.8140 294.3017 15.06397661150143
1 45578U 20025AZ  23001.12670214 -.00000434  00000-0 -10255-4 0  9997
2 45578  53.0552 260.0643 0001609  65.8140 294.3017 15.06397661149534
1 45578U 20025AZ  23001.79018215 -.00006551  00000-0 -42154-3 0  9995
2 45578  53.0551 257.0852 0001679  73.0209 287.0964 15.06380186150249
1 45578U 20025AZ  23001.79018215 -.00006551  00000-0 -42154-3 0  9995
2 45578  53.0551 257.0852 0001679  73.0209 287.0964 15.06380186149630
1 45578U 20025AZ  23002.38730566 -.00003182  00000-0 -19485-3 0  9999
2 45578  53.0553 254.4055 0001636  69.7861 290.3304 15.06387775150332
1 45578U 20025AZ  23002.38730566 -.00003182  00000-0 -19485-3 0  9999
2 45578  53.0553 254.4055 0001636  69.7861 290.3304 15.06387775149723
1 45578U 20025AZ  23003.38251777  .00008904  00000-0  61589-3 0  9999
2 45578  53.0552 249.9380 0001591  69.6765 290.4395 15.06399049150487
1 45578U 20025AZ  23003.78059929  .00005362  00000-0  37862-3 0  9990
2 45578  53.0549 248.1513 0001584  71.3106 288.8054 15.06399687149932
1 45578U 20025AZ  23004.37772064  .00005074  00000-0  35926-3 0  9997
2 45578  53.0548 245.4708 0001533  71.5969 288.5186 15.06403699150631
1 45578U 20025AZ  23004.97483564  .00009411  00000-0  64953-3 0  9998
2 45578  53.0545 242.7902 0001509  73.0981 287.0174 15.06417849150114
1 45578U 20025AZ  23005.37290906  .00010748  00000-0  73878-3 0  9990
2 45578  53.0543 241.0033 0001513  73.0459 287.0696 15.06427793150785
1 45578U 20025AZ  23005.77098536  .00005458  00000-0  38474-3 0  9994
2 45578  53.0539 239.2161 0001472  72.1578 287.9571 15.06425306150843
1 45578U 20025AZ  23005.77098536  .00005458  00000-0  38474-3 0  9994
2 45578  53.0539 239.2161 0001472  72.1578 287.9571 15.06425306150236
1 45578U 20025AZ  23006.36811451 -.00003711  00000-0 -23034-3 0  9997
2 45578  53.0541 236.5359 0002051  75.4740 284.6476 15.06396594150323
1 45578U 20025AZ  23006.76619246 -.00001382  00000-0 -73932-4 0  9994
2 45578  53.0541 234.7492 0001401  68.4866 291.6272 15.06396347150991
1 45578U 20025AZ  23007.42966271  .00007967  00000-0  55309-3 0  9991
2 45578  53.0540 231.7709 0001331  70.5622 289.5511 15.06402426150486
1 45578U 20025AZ  23007.76140099  .00002482  00000-0  18552-3 0  9996
2 45578  53.0536 230.2812 0001483  70.2198 289.8951 15.06391279151141
1 45578U 20025AZ  23007.76140099  .00002482  00000-0  18552-3 0  9996
2 45578  53.0536 230.2812 0001483  70.2198 289.8951 15.06391279150533
1 45578U 20025AZ  23008.88929685  .00005196  00000-0  36741-3 0  9991
2 45578  53.0534 225.2180 0001447  72.1083 288.0064 15.06404675151315
1 45578U 20025AZ  23008.88929685  .00005196  00000-0  36741-3 0  9991
2 45578  53.0534 225.2180 0001447  72.1083 288.0064 15.06404675150707
1 45578U 20025AZ  23009.61911895  .00001722  00000-0  13448-3 0  9997
2 45578  53.0538 221.9417 0001464  69.1310 290.9836 15.06391639151429
1 45578U 20025AZ  23009.61911895  .00001722  00000-0  13448-3 0  9997
2 45578  53.0538 221.9417 0001464  69.1310 290.9836 15.06391639150811
1 45578U 20025AZ  23009.88450526  .00002075  00000-0  15816-3 0  9998
2 45578  53.0538 220.7505 0001449  68.9795 291.1349 15.06395187151469
1 45578U 20025AZ  23010.34893009  .00001089  00000-0  91978-4 0  9996
2 45578  53.0537 218.6654 0001390  71.2550 288.8590 15.06401845151538
1 45578U 20025AZ  23010.34893009  .00001089  00000-0  91978-4 0  9996
2 45578  53.0537 218.6654 0001390  71.2550 288.8590 15.06401845150920
1 45578U 20025AZ  23010.68066627 -.00000043  00000-0  16001-4 0  9995
2 45578  53.0536 217.1760 0001394  70.5269 289.5870 15.06397371151584
1 45578U 20025AZ  23010.94605902 -.00001636  00000-0 -90968-4 0  9993
2 45578  53.0537 215.9848 0001402  70.5800 289.5340 15.06389386151016
1 45578U 20025AZ  23011.54318480  .00000887  00000-0  78420-4 0  9996
2 45578  53.0549 213.3041 0001305  72.5520 287.5611 15.06390386151717
1 45578U 20025AZ  23011.80857079  .00001171  00000-0  97535-4 0  9992
2 45578  53.0548 212.1127 0001306  72.4671 287.6461 15.06393389151759
1 45578U 20025AZ  23012.67107497  .00001699  00000-0  13291-3 0  9991
2 45578  53.0548 208.2406 0001279  71.9221 288.1907 15.06400511151880
1 45578U 20025AZ  23012.67107497  .00001699  00000-0  13291-3 0  9991
2 45578  53.0548 208.2406 0001279  71.9221 288.1907 15.06400511151273
1 45578U 20025AZ  23013.26819820  .00002117  00000-0  16100-3 0  9995
2 45578  53.0546 205.5605 0001319  70.2508 289.8623 15.06399299151977
1 45578U 20025AZ  23013.79897810  .00000839  00000-0  75226-4 0  9992
2 45578  53.0544 203.1772 0001285  73.2083 286.9047 15.06394586151441
1 45578U 20025AZ  23013.93167072  .00000896  00000-0  79011-4 0  9997
2 45578  53.0541 202.5812 0001342  77.5606 282.5533 15.06396743152077
1 45578U 20025AZ  23014.92687391  .00000106  00000-0  26000-4 0  9992
2 45578  53.0532 198.1143 0001399  79.4151 280.6995 15.06397598151611
1 45578U 20025AZ  23015.52399726  .00000849  00000-0  75885-4 0  9990
2 45578  53.0534 195.4331 0001327  76.3115 283.8022 15.06394289152317
1 45578U 20025AZ  23015.78938159  .00001409  00000-0  11346-3 0  9991
2 45578  53.0537 194.2418 0001284  74.9667 285.1464 15.06398476152352
1 45578U 20025AZ  23016.45285679  .00000668  00000-0  63761-4 0  9993
2 45578  53.0533 191.2640 0001260  78.9862 281.1268 15.06392690151840
1 45578U 20025AZ  23016.51920645 -.00000087  00000-0  13069-4 0  9991
2 45578  53.0536 190.9659 0001253  78.2698 281.8432 15.06390736152469
1 45578U 20025AZ  23016.85093622  .00000696  00000-0  65600-4 0  9997
2 45578  53.0537 189.4768 0001272  79.6244 280.4889 15.06397040152519
1 45578U 20025AZ  23017.51440524  .00000940  00000-0  82013-4 0  9997
2 45578  53.0537 186.4983 0001223  86.6804 273.4325 15.06396530152612
1 45578U 20025AZ  23017.51440524  .00000940  00000-0  82013-4 0  9997
2 45578  53.0537 186.4983 0001223  86.6804 273.4325 15.06396530152005
1 45578U 20025AZ  23018.44326071  .00001344  00000-0  10912-3 0  9997
2 45578  53.0545 182.3283 0001277  86.6981 273.4154 15.06396067152754
1 45578U 20025AZ  23018.64229874  .00001697  00000-0  13276-3 0  9999
2 45578  53.0540 181.4347 0001238  87.1405 272.9726 15.06398997152780
1 45578U 20025AZ  23018.64229874  .00001697  00000-0  13276-3 0  9999
2 45578  53.0540 181.4347 0001238  87.1405 272.9726 15.06398997152173
1 45578U 20025AZ  23019.57116157 -.00000336  00000-0 -36671-5 0  9998
2 45578  53.0538 177.2644 0001233  99.0775 261.0353 15.06392815152921
1 45578U 20025AZ  23019.70385680 -.00000539  00000-0 -17305-4 0  9999
2 45578  53.0539 176.6690 0001282  93.8125 266.3010 15.06391780152334
1 45578U 20025AZ  23020.43366549  .00000594  00000-0  58741-4 0  9992
2 45578  53.0540 173.3934 0001333  89.2394 270.8748 15.06399253153056
1 45578U 20025AZ  23020.43366549  .00000594  00000-0  58741-4 0  9992
2 45578  53.0540 173.3934 0001333  89.2394 270.8748 15.06399253152448
1 45578U 20025AZ  23021.69425598  .00002055  00000-0  15680-3 0  9999
2 45578  53.0538 167.7348 0001130  90.2696 269.8423 15.06397487152639
1 45578U 20025AZ  23022.35773230 -.00000612  00000-0 -22227-4 0  9997
2 45578  53.0546 164.7556 0001378  84.0029 276.1117 15.06395149152736
1 45578U 20025AZ  23023.48562501  .00000429  00000-0  47683-4 0  9996
2 45578  53.0536 159.6936 0000908 101.6949 258.4142 15.06399396152903
1 45578U 20025AZ  23024.34813842  .00002212  00000-0  16738-3 0  9997
2 45578  53.0532 155.8197 0001066  93.2343 266.8768 15.06389660153031
1 45578U 20025AZ  23024.67986323  .00001741  00000-0  13572-3 0  9997
2 45578  53.0549 154.3300 0000974  94.6774 265.4326 15.06405922153089
1 45578U 20025AZ  23025.34334302 -.00000049  00000-0  15616-4 0  9999
2 45578  53.0536 151.3502 0001250 112.2095 247.9027 15.06393445153187
1 45578U 20025AZ  23025.60872709  .00000401  00000-0  45833-4 0  9991
2 45578  53.0530 150.1610 0001210 100.5087 259.6038 15.06397689153833
1 45578U 20025AZ  23025.67507222  .00000581  00000-0  57867-4 0  9992
2 45578  53.0535 149.8626 0001199 105.2357 254.8764 15.06399952153847
1 45578U 20025AZ  23025.67507222  .00000581  00000-0  57867-4 0  9992
2 45578  53.0535 149.8626 0001199 105.2357 254.8764 15.06399952153230
1 45578U 20025AZ  23026.07315730  .00001228  00000-0  10132-3 0  9990
2 45578  53.0533 148.0754 0001041  99.1679 260.9428 15.06390403153298
1 45578U 20025AZ  23026.60392406  .00001031  00000-0  88046-4 0  9996
2 45578  53.0539 145.6926 0001156 100.8510 259.2609 15.06405945153985
1 45578U 20025AZ  23026.60392406  .00001031  00000-0  88046-4 0  9996
2 45578  53.0539 145.6926 0001156 100.8510 259.2609 15.06405945153378
1 45578U 20025AZ  23027.33374911  .00000519  00000-0  53728-4 0  9997
2 45578  53.0537 142.4182 0001243  87.5806 272.5325 15.06393481153487
1 45578U 20025AZ  23027.53279179  .00000254  00000-0  35950-4 0  9992
2 45578  53.0541 141.5250 0001186  82.9196 277.1928 15.06391943154128
1 45578U 20025AZ  23028.52799193  .00000333  00000-0  41245-4 0  9997
2 45578  53.0543 137.0567 0001248  94.5245 265.5887 15.06397456154270
1 45578U 20025AZ  23028.52799193  .00000333  00000-0  41245-4 0  9997
2 45578  53.0543 137.0567 0001248  94.5245 265.5887 15.06397456153662
1 45578U 20025AZ  23028.72702938  .00000639  00000-0  61811-4 0  9990
2 45578  53.0547 136.1634 0001212  86.8918 273.2210 15.06402177154308
1 45578U 20025AZ  23029.72223593  .00000525  00000-0  54160-4 0  9999
2 45578  53.0549 131.6961 0000875  72.8229 287.2856 15.06395365154454
1 45578U 20025AZ  23029.72223593  .00000525  00000-0  54160-4 0  9999
2 45578  53.0549 131.6961 0000875  72.8229 287.2856 15.06395365153846
1 45578U 20025AZ  23029.98763034 -.00000353  00000-0 -48451-5 0  9994
2 45578  53.0538 130.5041 0001081  87.9420 272.1693 15.06389476153883
1 45578U 20025AZ  23030.45205834  .00000204  00000-0  32568-4 0  9991
2 45578  53.0539 128.4196 0001004  86.6218 273.4886 15.06390190154566
1 45578U 20025AZ  23030.98282699 -.00000231  00000-0  33723-5 0  9999
2 45578  53.0542 126.0372 0001115  84.5653 275.5463 15.06401694154031
1 45578U 20025AZ  23031.51359915  .00001065  00000-0  90359-4 0  9997
2 45578  53.0538 123.6538 0001179  80.3771 279.7351 15.06402345154720
1 45578U 20025AZ  23031.64629063  .00001321  00000-0  10757-3 0  9993
2 45578  53.0534 123.0578 0001165  80.5971 279.5150 15.06404292154743
